NORAD_CAT_ID,OBJECT_NAME,OBJECT_TYPE,EPOCH,MEAN_MOTION,ECCENTRICITY,INCLINATION,RA_OF_ASC_NODE,ARG_OF_PERICENTER,MEAN_ANOMALY,BSTAR,MEAN_MOTION_DOT,MEAN_MOTION_DDOT,TLE_LINE0,TLE_LINE1,TLE_LINE2,SEMIMAJOR_AXIS,PERIOD,APOGEE,PERIGEE,DECAYED
55656.0,STARLINK-5326,PAYLOAD,2023-10-21 12:33:57,14.98333041,0.0002599,70.0039,218.2617,272.1527,87.9335,4.4887e-05,4.43e-06,0.0,0 STARLINK-5326,1 55656U 23021AE  23294.52358400  .00000443  00000-0  44887-4 0  9998,2 55656  70.0039 218.2617 0002599 272.1527  87.9335 14.98333041 38457,6950.183,96.107,573.855,570.242,0.0
55656.0,STARLINK-5326,PAYLOAD,2023-10-21 18:58:29,14.98348309,0.0002418,70.003,217.5874,262.6426,97.4458,4.0764e-05,3.94e-06,0.0,0 STARLINK-5326,1 55656U 23021AE  23294.79061586  .00000394  00000-0  40764-4 0  9998,2 55656  70.0030 217.5874 0002418 262.6426  97.4458 14.98348309 38193,6950.136,96.106,573.682,570.321,0.0
55656.0,STARLINK-5326,PAYLOAD,2023-10-21 22:10:45,14.9832128,0.0002553,70.0012,217.2514,262.7937,97.2932,0.00051459,6.051e-05,0.0,0 STARLINK-5326,1 55656U 23021AE  23294.92413544  .00006051  00000-0  51459-3 0  9996,2 55656  70.0012 217.2514 0002553 262.7937  97.2932 14.98321280 38519,6950.22,96.108,573.859,570.31,0.0
55656.0,STARLINK-5326,PAYLOAD,2023-10-22 12:35:58,14.98319761,0.0002199,70.0027,215.7369,298.302,61.7917,0.00032218,3.752e-05,0.0,0 STARLINK-5326,1 55656U 23021AE  23295.52498481  .00003752  00000-0  32218-3 0  9993,2 55656  70.0027 215.7369 0002199 298.3020  61.7917 14.98319761 38600,6950.225,96.108,573.618,570.561,0.0
55656.0,STARLINK-5326,PAYLOAD,2023-10-22 20:36:39,14.98312292,0.0002536,70.001,214.8954,270.9502,89.1367,1.5561e-05,9.3e-07,0.0,0 STARLINK-5326,1 55656U 23021AE  23295.85879530  .00000093  00000-0  15561-4 0  9995,2 55656  70.0010 214.8954 0002536 270.9502  89.1367 14.98312292 38355,6950.248,96.108,573.875,570.35,0.0
55656.0,STARLINK-5326,PAYLOAD,2023-10-22 22:12:48,14.98309526,0.0002636,70.001,214.727,270.6169,89.4688,7.3997e-06,-5e-08,0.0,0 STARLINK-5326,1 55656U 23021AE  23295.92555760 -.00000005  00000-0  73997-5 0  9991,2 55656  70.0010 214.7270 0002636 270.6169  89.4688 14.98309526 38661,6950.256,96.108,573.953,570.289,0.0
55656.0,STARLINK-5326,PAYLOAD,2023-10-23 20:38:40,14.9833724,0.0002817,70.0001,212.3693,276.9894,83.0945,-0.00011464,-1.461e-05,0.0,0 STARLINK-5326,1 55656U 23021AE  23296.86018715 -.00001461  00000-0 -11464-3 0  9996,2 55656  70.0001 212.3693 0002817 276.9894  83.0945 14.98337240 38502,6950.171,96.107,573.993,570.078,0.0
55656.0,STARLINK-5326,PAYLOAD,2023-10-23 22:14:48,14.98336517,0.0002909,70.0007,212.2024,273.9937,86.089,-4.7423e-05,-6.59e-06,0.0,0 STARLINK-5326,1 55656U 23021AE  23296.92694488 -.00000659  00000-0 -47423-4 0  9993,2 55656  70.0007 212.2024 0002909 273.9937  86.0890 14.98336517 38814,6950.173,96.107,574.06,570.016,0.0
55656.0,STARLINK-5326,PAYLOAD,2023-10-24 04:39:19,14.98342838,0.0002786,70.0006,211.5292,271.0074,89.0766,1.2887e-06,-7.8e-07,0.0,0 STARLINK-5326,1 55656U 23021AE  23297.19397856 -.00000078  00000-0  12887-5 0  9993,2 55656  70.0006 211.5292 0002786 271.0074  89.0766 14.98342838 38555,6950.153,96.106,573.955,570.082,0.0
55656.0,STARLINK-5326,PAYLOAD,2023-10-25 04:41:19,14.98365469,0.0002241,70.0011,209.0058,275.0565,85.0338,-0.00040532,-4.93e-05,0.0,0 STARLINK-5326,1 55656U 23021AE  23298.19537012 -.00004930  00000-0 -40532-3 0  9992,2 55656  70.0011 209.0058 0002241 275.0565  85.0338 14.98365469 38701,6950.083,96.105,573.506,570.391,0.0
55656.0,STARLINK-5326,PAYLOAD,2023-10-26 03:07:13,14.98334229,0.000269,70.0009,206.6482,269.3681,90.717,4.0512e-05,3.91e-06,0.0,0 STARLINK-5326,1 55656U 23021AE  23299.13002139  .00000391  00000-0  40512-4 0  9998,2 55656  70.0009 206.6482 0002690 269.3681  90.7170 14.98334229 38847,6950.18,96.107,573.914,570.175,0.0
55656.0,STARLINK-5326,PAYLOAD,2023-10-26 20:44:47,14.98265145,0.000355,70.0015,204.798,285.4174,74.6593,-0.00073563,-8.845e-05,0.0,0 STARLINK-5326,1 55656U 23021AE  23299.86444116 -.00008845  00000-0 -73563-3 0  9998,2 55656  70.0015 204.7980 0003550 285.4174  74.6593 14.98265145 39254,6950.393,96.111,574.726,569.791,0.0
55656.0,STARLINK-5326,PAYLOAD,2023-10-27 04:45:45,14.98060843,0.0002677,70.0013,203.9566,268.4349,91.6503,-0.0029246,-0.00034575,0.0,0 STARLINK-5326,1 55656U 23021AE  23300.19844762 -.00034575  00000-0 -29246-2 0  9995,2 55656  70.0013 203.9566 0002677 268.4349  91.6503 14.98060843 39008,6951.025,96.124,574.751,571.03,0.0
55656.0,STARLINK-5326,PAYLOAD,2023-10-27 11:10:34,14.97897672,0.0002577,70.0013,203.2838,267.8725,92.2139,-0.0045402,-0.00053257,0.0,0 STARLINK-5326,1 55656U 23021AE  23300.46567536 -.00053257  00000-0 -45402-2 0  9996,2 55656  70.0013 203.2838 0002577 267.8725  92.2139 14.97897672 39046,6951.53,96.135,575.187,571.604,0.0
55656.0,STARLINK-5326,PAYLOAD,2023-10-27 20:47:42,14.97758762,0.0003125,70.0005,202.2739,256.0731,104.008,-0.0055459,-0.00064698,0.0,0 STARLINK-5326,1 55656U 23021AE  23300.86646417 -.00064698  00000-0 -55459-2 0  9990,2 55656  70.0005 202.2739 0003125 256.0731 104.0080 14.97758762 39103,6951.96,96.144,575.997,571.652,0.0
55656.0,STARLINK-5326,PAYLOAD,2023-10-28 00:00:14,14.97604092,0.0002819,70.0004,201.9387,266.0799,94.0037,-0.0070846,-0.00082089,0.0,0 STARLINK-5326,1 55656U 23021AE  23301.00016659 -.00082089  00000-0 -70846-2 0  9997,2 55656  70.0004 201.9387 0002819 266.0799  94.0037 14.97604092 39129,6952.439,96.154,576.264,572.344,0.0
55656.0,STARLINK-5326,PAYLOAD,2023-10-28 03:12:49,14.97415463,0.0003284,70.0007,201.6021,274.9112,85.1671,-0.0089989,-0.00103429,0.0,0 STARLINK-5326,1 55656U 23021AE  23301.13390348 -.00103429  00000-0 -89989-2 0  9991,2 55656  70.0007 201.6021 0003284 274.9112  85.1671 14.97415463 39147,6953.022,96.166,577.171,572.604,0.0
55656.0,STARLINK-5326,PAYLOAD,2023-10-30 22:00:00,14.9694934,0.0002854,70.002,194.6025,277.2307,314.9009,0.038506,0.00469575,0.0,0 STARLINK-5326,1 55656U 23021AE  23303.91667824  .00469575  00000-0  38506-1 0  9998,2 55656  70.0020 194.6025 0002854 277.2307 314.9009 14.96949340 39559,6954.466,96.196,578.316,574.346,0.0
55656.0,STARLINK-5326,PAYLOAD,2023-10-31 09:47:26,14.97019938,0.0002977,70.0003,193.3648,266.9583,93.1235,0.003251,0.00037613,0.0,0 STARLINK-5326,1 55656U 23021AE  23304.40794200  .00037613  00000-0  32510-2 0  9996,2 55656  70.0003 193.3648 0002977 266.9583  93.1235 14.97019938 39632,6954.247,96.191,578.182,574.042,0.0
55656.0,STARLINK-5326,PAYLOAD,2023-10-31 19:23:57,14.97603115,0.0002464,70.0002,192.3547,267.1427,92.945,0.0094356,0.00112186,0.0,0 STARLINK-5326,1 55656U 23021AE  23304.80830586  .00112186  00000-0  94356-2 0  9993,2 55656  70.0002 192.3547 0002464 267.1427  92.9450 14.97603115 39697,6952.442,96.154,576.02,572.594,0.0
55656.0,STARLINK-5326,PAYLOAD,2023-11-01 08:13:34,14.97609029,0.0002276,70.0002,191.0094,284.9371,75.1536,0.0083853,0.00099522,0.0,0 STARLINK-5326,1 55656U 23021AE  23305.34275796  .00099522  00000-0  83853-2 0  9997,2 55656  70.0002 191.0094 0002276 284.9371  75.1536 14.97609029 39773,6952.423,96.153,575.871,572.706,0.0
55656.0,STARLINK-5326,PAYLOAD,2023-11-01 14:38:10,14.97715371,0.0002853,70.0002,190.3365,277.158,82.9255,0.0088882,0.00105884,0.0,0 STARLINK-5326,1 55656U 23021AE  23305.60984548  .00105884  00000-0  88882-2 0  9994,2 55656  70.0002 190.3365 0002853 277.1580  82.9255 14.97715371 40115,6952.094,96.146,575.943,571.976,0.0
55656.0,STARLINK-5326,PAYLOAD,2023-11-01 21:02:50,14.97753595,0.0002806,70.0002,189.6639,274.1826,85.9012,0.0087827,0.00104711,0.0,0 STARLINK-5326,1 55656U 23021AE  23305.87697734  .00104711  00000-0  87827-2 0  9997,2 55656  70.0002 189.6639 0002806 274.1826  85.9012 14.97753595 39851,6951.976,96.144,575.792,571.89,0.0
55656.0,STARLINK-5326,PAYLOAD,2023-11-02 09:52:06,14.97908563,0.000258,70.0005,188.3177,276.5391,83.5474,0.0066854,0.00079716,0.0,0 STARLINK-5326,1 55656U 23021AE  23306.41118233  .00079716  00000-0  66854-2 0  9993,2 55656  70.0005 188.3177 0002580 276.5391  83.5474 14.97908563 39931,6951.496,96.134,575.155,571.568,0.0
55656.0,STARLINK-5326,PAYLOAD,2023-11-02 21:05:07,14.98066705,0.0002545,70.0005,187.1406,251.3908,108.6975,0.0035335,0.00042034,0.0,0 STARLINK-5326,1 55656U 23021AE  23306.87855780  .00042034  00000-0  35335-2 0  9991,2 55656  70.0005 187.1406 0002545 251.3908 108.6975 14.98066705 40008,6951.007,96.124,574.641,571.103,0.0
55656.0,STARLINK-5326,PAYLOAD,2023-11-02 22:41:12,14.98163623,0.0002832,70.0004,186.9718,273.3897,86.6938,0.0028636,0.00034094,0.0,0 STARLINK-5326,1 55656U 23021AE  23306.94528342  .00034094  00000-0  28636-2 0  9993,2 55656  70.0004 186.9718 0002832 273.3897  86.6938 14.98163623 40315,6950.707,96.118,574.541,570.604,0.0
55656.0,STARLINK-5326,PAYLOAD,2023-11-03 06:00:00,14.983409,0.0002971,70.001,186.2024,275.0507,288.302,-0.002977,-0.00035445,0.0,0 STARLINK-5326,1 55656U 23021AE  23307.25001157 -.00035445  00000-0 -29770-2 0  9991,2 55656  70.0010 186.2024 0002971 275.0507 288.3020 14.98340900 40055,6950.159,96.106,574.089,569.959,0.0
55656.0,STARLINK-5326,PAYLOAD,2023-11-03 14:00:01,14.98301137,0.000298,70.0014,185.3622,269.2431,291.5912,0.0054843,0.00065915,0.0,0 STARLINK-5326,1 55656U 23021AE  23307.58334491  .00065915  00000-0  54843-2 0  9999,2 55656  70.0014 185.3622 0002980 269.2431 291.5912 14.98301137  5780,6950.282,96.109,574.218,570.076,0.0
55656.0,STARLINK-5326,PAYLOAD,2023-11-03 22:00:00,14.98345155,0.0003016,70.0014,184.5218,273.2304,285.082,-0.0021324,-0.00025454,0.0,0 STARLINK-5326,1 55656U 23021AE  23307.91667824 -.00025454  00000-0 -21324-2 0  9999,2 55656  70.0014 184.5218 0003016 273.2304 285.0820 14.98345155 40151,6950.146,96.106,574.107,569.915,0.0
55656.0,STARLINK-5326,PAYLOAD,2023-11-04 01:55:29,14.9831118,0.0002581,70.0002,184.11,248.6872,111.4011,0.00042871,5.023e-05,0.0,0 STARLINK-5326,1 55656U 23021AE  23308.08020218  .00005023  00000-0  42871-3 0  9997,2 55656  70.0002 184.1100 0002581 248.6872 111.4011 14.98311180 40487,6950.251,96.108,573.91,570.322,0.0
